[{"OBJECT_NAME":"STARLINK-3089","OBJECT_ID":"2021-082AN","EPOCH":"2026-03-09T21:50:52.295136","MEAN_MOTION":14.97521969,"ECCENTRICITY":0.00026147,"INCLINATION":69.9979,"RA_OF_ASC_NODE":274.6873,"ARG_OF_PERICENTER":268.4564,"MEAN_ANOMALY":91.6295,"EPHEMERIS_TYPE":0,"CLASSIFICATION_TYPE":"U","NORAD_CAT_ID":49166,"ELEMENT_SET_NO":999,"REV_AT_EPOCH":24768,"BSTAR":1.7192641e-5,"MEAN_MOTION_DOT":1.09e-6,"MEAN_MOTION_DDOT":0},{"OBJECT_NAME":"STRIX-5","OBJECT_ID":"2025-229A","EPOCH":"2026-03-09T11:44:23.455104","MEAN_MOTION":15.03509399,"ECCENTRICITY":0.00369417,"INCLINATION":41.9265,"RA_OF_ASC_NODE":119.8574,"ARG_OF_PERICENTER":120.2079,"MEAN_ANOMALY":240.2413,"EPHEMERIS_TYPE":0,"CLASSIFICATION_TYPE":"U","NORAD_CAT_ID":65971,"ELEMENT_SET_NO":999,"REV_AT_EPOCH":2196,"BSTAR":0.00044899589,"MEAN_MOTION_DOT":6.129e-5,"MEAN_MOTION_DDOT":0}]
